[{"OBJECT_NAME":"SINOD-D 3","OBJECT_ID":"2015-058P","EPOCH":"2026-03-03T18:49:33.319488","MEAN_MOTION":14.93127278,"ECCENTRICITY":0.0118894,"INCLINATION":64.7711,"RA_OF_ASC_NODE":244.7424,"ARG_OF_PERICENTER":100.5795,"MEAN_ANOMALY":260.8736,"EPHEMERIS_TYPE":0,"CLASSIFICATION_TYPE":"U","NORAD_CAT_ID":40977,"ELEMENT_SET_NO":999,"REV_AT_EPOCH":9901,"BSTAR":0.000603,"MEAN_MOTION_DOT":7.077e-5,"MEAN_MOTION_DDOT":0},{"OBJECT_NAME":"HORYU-4","OBJECT_ID":"2016-012D","EPOCH":"2026-03-03T11:04:11.167104","MEAN_MOTION":15.61617061,"ECCENTRICITY":0.00020209,"INCLINATION":30.9913,"RA_OF_ASC_NODE":111.5367,"ARG_OF_PERICENTER":83.5639,"MEAN_ANOMALY":276.5244,"EPHEMERIS_TYPE":0,"CLASSIFICATION_TYPE":"U","NORAD_CAT_ID":41340,"ELEMENT_SET_NO":999,"REV_AT_EPOCH":55413,"BSTAR":0.0010416691,"MEAN_MOTION_DOT":0.00094219,"MEAN_MOTION_DDOT":0},{"OBJECT_NAME":"RAVAN","OBJECT_ID":"2016-067B","EPOCH":"2026-03-03T14:57:49.789152","MEAN_MOTION":15.4555584,"ECCENTRICITY":0.0006981,"INCLINATION":98.0057,"RA_OF_ASC_NODE":300.7136,"ARG_OF_PERICENTER":25.261,"MEAN_ANOMALY":334.8977,"EPHEMERIS_TYPE":0,"CLASSIFICATION_TYPE":"U","NORAD_CAT_ID":41849,"ELEMENT_SET_NO":999,"REV_AT_EPOCH":51134,"BSTAR":0.0010188,"MEAN_MOTION_DOT":0.00049139,"MEAN_MOTION_DDOT":0},{"OBJECT_NAME":"CELTEE 1","OBJECT_ID":"2016-067C","EPOCH":"2026-03-03T13:18:09.161280","MEAN_MOTION":15.18491433,"ECCENTRICITY":5.89e-5,"INCLINATION":98.0824,"RA_OF_ASC_NODE":281.9077,"ARG_OF_PERICENTER":130.2257,"MEAN_ANOMALY":229.9027,"EPHEMERIS_TYPE":0,"CLASSIFICATION_TYPE":"U","NORAD_CAT_ID":41850,"ELEMENT_SET_NO":999,"REV_AT_EPOCH":50984,"BSTAR":0.00042545,"MEAN_MOTION_DOT":8.701e-5,"MEAN_MOTION_DDOT":0},{"OBJECT_NAME":"OPTICUBE 04","OBJECT_ID":"2016-067D","EPOCH":"2026-03-03T14:37:04.151712","MEAN_MOTION":15.09141661,"ECCENTRICITY":0.0017015,"INCLINATION":98.0806,"RA_OF_ASC_NODE":269.3393,"ARG_OF_PERICENTER":113.0129,"MEAN_ANOMALY":247.2895,"EPHEMERIS_TYPE":0,"CLASSIFICATION_TYPE":"U","NORAD_CAT_ID":41851,"ELEMENT_SET_NO":999,"REV_AT_EPOCH":50924,"BSTAR":0.00020535,"MEAN_MOTION_DOT":3.198e-5,"MEAN_MOTION_DDOT":0},{"OBJECT_NAME":"AEROCUBE 8D","OBJECT_ID":"2016-067E","EPOCH":"2026-03-03T13:13:47.406432","MEAN_MOTION":15.22735514,"ECCENTRICITY":0.0004409,"INCLINATION":98.0839,"RA_OF_ASC_NODE":284.7143,"ARG_OF_PERICENTER":127.2823,"MEAN_ANOMALY":232.8814,"EPHEMERIS_TYPE":0,"CLASSIFICATION_TYPE":"U","NORAD_CAT_ID":41852,"ELEMENT_SET_NO":999,"REV_AT_EPOCH":50998,"BSTAR":0.00049926,"MEAN_MOTION_DOT":0.00011581,"MEAN_MOTION_DDOT":0},{"OBJECT_NAME":"AEROCUBE 8C","OBJECT_ID":"2016-067F","EPOCH":"2026-03-03T15:47:51.000288","MEAN_MOTION":15.22959553,"ECCENTRICITY":0.0006688,"INCLINATION":98.0704,"RA_OF_ASC_NODE":282.197,"ARG_OF_PERICENTER":70.2787,"MEAN_ANOMALY":289.9169,"EPHEMERIS_TYPE":0,"CLASSIFICATION_TYPE":"U","NORAD_CAT_ID":41853,"ELEMENT_SET_NO":999,"REV_AT_EPOCH":50999,"BSTAR":0.00046384,"MEAN_MOTION_DOT":0.00010827,"MEAN_MOTION_DDOT":0},{"OBJECT_NAME":"CORVUS BC2","OBJECT_ID":"2017-042X","EPOCH":"2026-03-03T09:55:32.719296","MEAN_MOTION":15.05529663,"ECCENTRICITY":0.00142507,"INCLINATION":97.3922,"RA_OF_ASC_NODE":227.9967,"ARG_OF_PERICENTER":113.1483,"MEAN_ANOMALY":247.1247,"EPHEMERIS_TYPE":0,"CLASSIFICATION_TYPE":"U","NORAD_CAT_ID":42846,"ELEMENT_SET_NO":999,"REV_AT_EPOCH":47114,"BSTAR":0.00041579578,"MEAN_MOTION_DOT":5.94e-5,"MEAN_MOTION_DDOT":0},{"OBJECT_NAME":"CORVUS BC1","OBJECT_ID":"2017-042Y","EPOCH":"2026-03-03T10:06:13.735584","MEAN_MOTION":15.05746487,"ECCENTRICITY":0.00132848,"INCLINATION":97.3952,"RA_OF_ASC_NODE":228.7452,"ARG_OF_PERICENTER":91.113,"MEAN_ANOMALY":269.162,"EPHEMERIS_TYPE":0,"CLASSIFICATION_TYPE":"U","NORAD_CAT_ID":42847,"ELEMENT_SET_NO":999,"REV_AT_EPOCH":47117,"BSTAR":0.00031789523,"MEAN_MOTION_DOT":4.552e-5,"MEAN_MOTION_DDOT":0},{"OBJECT_NAME":"MAKERSAT 0","OBJECT_ID":"2017-073D","EPOCH":"2026-03-03T14:39:03.541824","MEAN_MOTION":15.27450576,"ECCENTRICITY":0.0116176,"INCLINATION":97.4798,"RA_OF_ASC_NODE":304.5701,"ARG_OF_PERICENTER":287.7327,"MEAN_ANOMALY":71.1259,"EPHEMERIS_TYPE":0,"CLASSIFICATION_TYPE":"U","NORAD_CAT_ID":43016,"ELEMENT_SET_NO":999,"REV_AT_EPOCH":45032,"BSTAR":0.00093724,"MEAN_MOTION_DOT":0.00030771,"MEAN_MOTION_DDOT":0},{"OBJECT_NAME":"SIRION PATHFINDER-2","OBJECT_ID":"2018-099B","EPOCH":"2026-03-03T16:49:55.075296","MEAN_MOTION":15.13448667,"ECCENTRICITY":0.0007613,"INCLINATION":97.4399,"RA_OF_ASC_NODE":114.2688,"ARG_OF_PERICENTER":311.1003,"MEAN_ANOMALY":48.957,"EPHEMERIS_TYPE":0,"CLASSIFICATION_TYPE":"U","NORAD_CAT_ID":43759,"ELEMENT_SET_NO":999,"REV_AT_EPOCH":39666,"BSTAR":0.00041574,"MEAN_MOTION_DOT":7.374e-5,"MEAN_MOTION_DDOT":0},{"OBJECT_NAME":"CORVUS BC4","OBJECT_ID":"2018-099K","EPOCH":"2026-03-03T16:50:01.995072","MEAN_MOTION":15.11536086,"ECCENTRICITY":0.0008666,"INCLINATION":97.4217,"RA_OF_ASC_NODE":108.7597,"ARG_OF_PERICENTER":17.1662,"MEAN_ANOMALY":342.986,"EPHEMERIS_TYPE":0,"CLASSIFICATION_TYPE":"U","NORAD_CAT_ID":43767,"ELEMENT_SET_NO":999,"REV_AT_EPOCH":39646,"BSTAR":0.00036755,"MEAN_MOTION_DOT":6.173e-5,"MEAN_MOTION_DDOT":0},{"OBJECT_NAME":"SPACEBEE-7","OBJECT_ID":"2018-099BL","EPOCH":"2026-03-03T18:05:30.950880","MEAN_MOTION":16.0578504,"ECCENTRICITY":0.0008316,"INCLINATION":97.4392,"RA_OF_ASC_NODE":149.2076,"ARG_OF_PERICENTER":273.3337,"MEAN_ANOMALY":86.6993,"EPHEMERIS_TYPE":0,"CLASSIFICATION_TYPE":"U","NORAD_CAT_ID":43816,"ELEMENT_SET_NO":999,"REV_AT_EPOCH":39826,"BSTAR":0.002175,"MEAN_MOTION_DOT":0.01518015,"MEAN_MOTION_DDOT":0.00149},{"OBJECT_NAME":"M2 PATHFINDER","OBJECT_ID":"2020-037E","EPOCH":"2026-03-03T13:25:00.481440","MEAN_MOTION":15.04125995,"ECCENTRICITY":0.0012376,"INCLINATION":97.8144,"RA_OF_ASC_NODE":252.6146,"ARG_OF_PERICENTER":145.6126,"MEAN_ANOMALY":214.5903,"EPHEMERIS_TYPE":0,"CLASSIFICATION_TYPE":"U","NORAD_CAT_ID":45727,"ELEMENT_SET_NO":999,"REV_AT_EPOCH":30961,"BSTAR":0.00026763,"MEAN_MOTION_DOT":3.652e-5,"MEAN_MOTION_DDOT":0},{"OBJECT_NAME":"NETSAT-4","OBJECT_ID":"2020-068U","EPOCH":"2026-03-03T11:36:51.684192","MEAN_MOTION":15.40063453,"ECCENTRICITY":0.00054805,"INCLINATION":97.8635,"RA_OF_ASC_NODE":62.5212,"ARG_OF_PERICENTER":3.1747,"MEAN_ANOMALY":356.9532,"EPHEMERIS_TYPE":0,"CLASSIFICATION_TYPE":"U","NORAD_CAT_ID":46504,"ELEMENT_SET_NO":999,"REV_AT_EPOCH":29948,"BSTAR":0.00056768496,"MEAN_MOTION_DOT":0.00022655,"MEAN_MOTION_DDOT":0},{"OBJECT_NAME":"NETSAT-3","OBJECT_ID":"2020-068V","EPOCH":"2026-03-03T12:48:56.697984","MEAN_MOTION":15.38721432,"ECCENTRICITY":0.0006001,"INCLINATION":97.8668,"RA_OF_ASC_NODE":60.9438,"ARG_OF_PERICENTER":19.8294,"MEAN_ANOMALY":340.3182,"EPHEMERIS_TYPE":0,"CLASSIFICATION_TYPE":"U","NORAD_CAT_ID":46505,"ELEMENT_SET_NO":999,"REV_AT_EPOCH":29941,"BSTAR":0.00066588,"MEAN_MOTION_DOT":0.00025459,"MEAN_MOTION_DDOT":0},{"OBJECT_NAME":"NETSAT-1","OBJECT_ID":"2020-068W","EPOCH":"2026-03-03T17:46:58.290816","MEAN_MOTION":15.31791096,"ECCENTRICITY":0.0006626,"INCLINATION":97.8739,"RA_OF_ASC_NODE":56.6637,"ARG_OF_PERICENTER":36.9788,"MEAN_ANOMALY":323.1908,"EPHEMERIS_TYPE":0,"CLASSIFICATION_TYPE":"U","NORAD_CAT_ID":46506,"ELEMENT_SET_NO":999,"REV_AT_EPOCH":29914,"BSTAR":0.00067884,"MEAN_MOTION_DOT":0.000208,"MEAN_MOTION_DDOT":0}]
