SINOD-D 3               
1 40977U 15058P   26062.78441342  .00007077  00000+0  60300-3 0  9997
2 40977  64.7711 244.7424 0118894 100.5795 260.8736 14.93127278 99015
HORYU-4                 
1 41340U 16012D   26062.46124036  .00094219  00000+0  10417-2 0  9993
2 41340  30.9913 111.5367 0002020  83.5639 276.5244 15.61617061554133
RAVAN                   
1 41849U 16067B   26062.62349293  .00049139  00000+0  10188-2 0  9995
2 41849  98.0057 300.7136 0006981  25.2610 334.8977 15.45555840511344
CELTEE 1                
1 41850U 16067C   26062.55427270  .00008701  00000+0  42545-3 0  9994
2 41850  98.0824 281.9077 0000589 130.2257 229.9027 15.18491433509843
OPTICUBE 04             
1 41851U 16067D   26062.60907583  .00003198  00000+0  20535-3 0  9991
2 41851  98.0806 269.3393 0017015 113.0129 247.2895 15.09141661509249
AEROCUBE 8D             
1 41852U 16067E   26062.55124313  .00011581  00000+0  49926-3 0  9998
2 41852  98.0839 284.7143 0004409 127.2823 232.8814 15.22735514509984
AEROCUBE 8C             
1 41853U 16067F   26062.65822917  .00010827  00000+0  46384-3 0  9992
2 41853  98.0704 282.1970 0006688  70.2787 289.9169 15.22959553509991
CORVUS BC2              
1 42846U 17042X   26062.41357314  .00005940  00000+0  41580-3 0  9990
2 42846  97.3922 227.9967 0014250 113.1483 247.1247 15.05529663471149
CORVUS BC1              
1 42847U 17042Y   26062.42099231  .00004552  00000+0  31790-3 0  9993
2 42847  97.3952 228.7452 0013284  91.1130 269.1620 15.05746487471178
MAKERSAT 0              
1 43016U 17073D   26062.61045766  .00030771  00000+0  93724-3 0  9998
2 43016  97.4798 304.5701 0116176 287.7327  71.1259 15.27450576450329
SIRION PATHFINDER-2     
1 43759U 18099B   26062.70133189  .00007374  00000+0  41574-3 0  9997
2 43759  97.4399 114.2688 0007613 311.1003  48.9570 15.13448667396665
CORVUS BC4              
1 43767U 18099K   26062.70141198  .00006173  00000+0  36755-3 0  9996
2 43767  97.4217 108.7597 0008666  17.1662 342.9860 15.11536086396461
SPACEBEE-7              
1 43816U 18099BL  26062.75383045  .01518015  14900-2  21750-2 0  9994
2 43816  97.4392 149.2076 0008316 273.3337  86.6993 16.05785040398268
M2 PATHFINDER           
1 45727U 20037E   26062.55903335  .00003652  00000+0  26763-3 0  9998
2 45727  97.8144 252.6146 0012376 145.6126 214.5903 15.04125995309614
NETSAT-4                
1 46504U 20068U   26062.48393153  .00022655  00000+0  56768-3 0  9991
2 46504  97.8635  62.5212 0005480   3.1747 356.9532 15.40063453299482
NETSAT-3                
1 46505U 20068V   26062.53398956  .00025459  00000+0  66588-3 0  9990
2 46505  97.8668  60.9438 0006001  19.8294 340.3182 15.38721432299418
NETSAT-1                
1 46506U 20068W   26062.74095244  .00020800  00000+0  67884-3 0  9993
2 46506  97.8739  56.6637 0006626  36.9788 323.1908 15.31791096299143
